name	menu_link	type	address	lon	lat	is_location_valid
Le Baratin	/ny/new-york/361030-le-baratin/menu/	French, Bistro	26 Greenwich Ave New York, NY, 10011	-73.99992579796432	40.7349963	true
North River	/ny/new-york/381300-north-river/menu/	American, Cocktails	166 1st Ave New York, NY, 10009	-73.98401795575728	40.728805449999996	true
B4	/ny/new-york/360670-b4/menu/	American (New)	235 E 4th St New York, NY, 10009	-73.9828435	40.7235044	true
Grill On Wheels	/ny/new-york/357738-grill-on-wheels/menu/	Sandwiches, Chicken, Kosher	Location Varies New York, NY, 10018	0	0	false
SpaHa Soul	/ny/new-york/374424-spaha-soul/menu/	Soul Food, Vegetarian	2270 1st Ave New York, NY, 10035	-73.93482608528132	40.796342949999996	true
America's Finest Deli	/ny/new-york/375922-america-s-finest-deli/menu/	Cheesesteaks, Deli Food, Sandwiches	46 Trinity Pl New York, NY, 10006	-74.0132733	40.7076165	true
Mexican Festival Restaurant	/ny/new-york/380213-mexican-festival-restaurant/menu/	Mexican, Vegetarian	2672 Broadway Ave New York, NY, 10025	-76.1944938	42.5943831	true
#Mazeish	/ny/new-york/437106-mazeish/menu/	Mediterranean, Middle Eastern, Persian	137 Rivington St New York, NY, 10002	-73.986427	40.7193834	true
Cafe Clover	/ny/new-york/478376-cafe-clover/menu/	American (New), Healthy	10 Downing St New York, NY, 10014	-74.00275187404469	40.72928945	true
Houston Village Farm Deli Cafe & Grocery	/ny/new-york/262307-houston-village-farm-deli-cafe-grocery/menu/	Deli Food, Sandwiches	61 1st Ave New York, NY, 10003	-73.9873	40.7251634	true
Ippin	/ny/new-york/334552-ippin/menu/	Japanese, Sushi, Noodles	141 1st Ave New York, NY, 10003	-73.98530740935283	40.72809545	true
At Nine	/ny/new-york/373668-at-nine/menu/	Thai	592 9th Ave New York, NY, 10036	-73.99211492451863	40.758713099999994	true
Cafe Nadery	/ny/new-york/357760-cafe-nadery/menu/	Coffee & Tea, Persian	16 W 8th St New York, NY, 10011	-73.9974121	40.7326017	true
Culture Fix	/ny/new-york/358904-culture-fix/menu/	Spanish, Tapas	9 Clinton St New York, NY, 10002	-73.9841638	40.7210817	true
Sam's Falafel Stand	/ny/new-york/360762-sam-s-falafel-stand/menu/	Middle Eastern	Cedar St New York, NY, 10006	-74.0109451	40.7088433	true
Macchiato Espresso Bar	/ny/new-york/360181-macchiato-espresso-bar/menu/	Coffee & Tea, Sandwiches	666 5th Ave New York, NY, 10019	-73.9762428	40.7603559	true
Ambizza Cafe Truck	/ny/new-york/355873-ambizza-cafe-truck/menu/	Middle Eastern, Sandwiches	Water St New York, NY, 10004	-74.0119046	40.7028423	true
124 Old Rabbit Club	/ny/new-york/356373-124-old-rabbit-club/menu/	Cocktails	124 MacDougal St New York, NY, 10012	-74.0003929	40.7299594	true
Monte-Carlo	/ny/new-york/478425-monte-carlo/menu/	French	181 E 78th St New York, NY, 10075	-73.95811745047695	40.7738707	true
Upland	/ny/new-york/477580-upland/menu/	Italian, Californian	345 Park Ave S New York, NY, 10010	-73.9850339	40.7417075	true
Atwood	/ny/new-york/477811-atwood/menu/	American (New), Cocktails	986 2nd Ave New York, NY, 10022	-73.96723130000001	40.75615905	true
Confessional	/ny/new-york/386418-confessional/menu/	Tapas, Cocktails, Nuevo Latino	308 E 6th St New York, NY, 10003	-73.9880547	40.7270134	true
Tio Luca Cocina & Vino Bar	/ny/new-york/386430-tio-luca-cocina-vino-bar/menu/	Alcohol, Latin American, Tapas	421 Lenox Ave New York, NY, 10027	-73.94262357142857	40.81186528571428	true
Dessert Delivery	/ny/new-york/2796-dessert-delivery/menu/	Bakery & Pastries, Desserts	55th St New York, NY, 10022	-73.909587	40.744941	true
Byblos	/ny/new-york/2990-byblos/menu/	Middle Eastern, Tapas	80 Madison Ave New York, NY, 10016	-73.9857133	40.744225	true
Arome Cafe	/ny/new-york/4745-arome-cafe/menu/	Sushi, Deli Food, Sandwiches	325 Broadway Ave New York, NY, 10007	-73.06634134693878	40.76445210204081	true
East Side Gourmet Deli	/ny/new-york/4829-east-side-gourmet-deli/menu/	Deli Food, Sandwiches	53 Ave B New York, NY, 10009	-73.9824849	40.7231378	true
Corrado	/ny/new-york/52263-corrado/menu/	Bakery & Pastries, Coffee & Tea, Sandwiches	1361 Lexington Ave New York, NY, 10128	-73.9534467	40.7821876	true
CC's Cafe	/ny/new-york/141126-cc-s-cafe/menu/	Coffee & Tea, Sandwiches	496 Hudson St New York, NY, 10014	-74.00613687527907	40.73287795	true
Emack & Bolio's	/ny/new-york/228156-emack-bolio-s/menu/	Desserts	73 W Houston St New York, NY, 10012	-73.9995554	40.7265335	true
Dining Room Management Group	/ny/new-york/250047-dining-room-management-group/menu/	Chinese	102 Mott St New York, NY, 10013	-73.99731761538462	40.717338999999996	true
Hop Lee Restaurant	/ny/new-york/250130-hop-lee-restaurant/menu/	Chinese	16 Mott St New York, NY, 10013	-73.99852873115762	40.714250250000006	true
Ageha Sushi	/ny/new-york/335043-ageha-sushi/menu/		767 9th Ave New York, NY, 10019	-73.98853478535895	40.764501100000004	true
Da Noi	/ny/new-york/337190-da-noi/menu/		214 E 49th St New York, NY, 10017	-73.97064541654804	40.754733	true
Pinche Taqueria	/ny/new-york/337547-pinche-taqueria/menu/	Mexican	103 W 14th St New York, NY, 10011	-73.9972168	40.7376931	true
Jacques Torres Chocolate	/ny/new-york/331040-jacques-torres-chocolate/menu/	Desserts	285 Amsterdam Ave New York, NY, 10023	-73.9808875	40.7793287	true
Ajisai Japanese Restaurant	/ny/new-york/333616-ajisai-japanese-restaurant/menu/	Japanese, Sushi	795 Lexington Ave New York, NY, 10065	-73.96673965	40.76375915	true
Ajisai Japanese Restaurant	/ny/new-york/333616-ajisai-japanese-restaurant/menu/	Japanese, Sushi	795 Lexington Ave New York, NY, 10065	-73.96673965	40.76375915	true
Chopt Creative Salad Co.	/ny/new-york/333734-chopt-creative-salad-co/menu/	Sandwiches, Salads	11 W 42nd St New York, NY, 10036	-73.98185642308394	40.75428005	true
SakaMai	/ny/new-york/342726-sakamai/menu/	Japanese, Cocktails, Gastropub	157 Ludlow St New York, NY, 10002	-73.98812410325041	40.72100615	true
Benvenuto Tribeca	/ny/new-york/299880-benvenuto-tribeca/menu/	Deli Food, Sandwiches	369 Greenwich St New York, NY, 10013	-74.0100953	40.7193052	true
Imperial Pizzeria	/ny/new-york/302273-imperial-pizzeria/menu/	Italian, Pizza, Vegetarian	913 Columbus Ave New York, NY, 10025	-73.9633365	40.7982961	true
Falafel on Broadway	/ny/new-york/308682-falafel-on-broadway/menu/	Middle Eastern	3151 Broadway Ave New York, NY, 10027	-76.1944938	42.5943831	true
Falafel on Broadway	/ny/new-york/308682-falafel-on-broadway/menu/	Middle Eastern	3151 Broadway Ave New York, NY, 10027	-76.1944938	42.5943831	true
Casa Loca	/ny/new-york/314788-casa-loca/menu/	Mexican, Vegetarian	171A Avenue A New York, NY, 10009	-73.98203325	40.728282	true
Pie Pie Pizza	/ny/new-york/314859-pie-pie-pizza/menu/	Pizza	1593 St Nicholas Ave New York, NY, 10040	-73.9300152	40.8547185	true
Fluffy's CafÃ© & Pizzeria.	/ny/new-york/315753-fluffy-s-cafe-pizzeria/menu/	Deli Food, Sandwiches	370 W 58th St New York, NY, 10019	-73.9850979	40.7684178	true
Manny's Gourmet	/ny/new-york/316262-manny-s-gourmet/menu/	Deli Food, Sandwiches	27 St James Pl New York, NY, 10038	-73.9993673	40.7119244	true
La Bella Vita	/ny/new-york/318419-la-bella-vita/menu/	Italian	163 Mulberry St New York, NY, 10013	-73.99739196862089	40.7197765	true
Q & N Foods	/ny/new-york/318476-q-n-foods/menu/	Deli Food, Sandwiches	107 E 125th St New York, NY, 10035	-73.93832018420156	40.805065049999996	true
FP Patisserie	/ny/new-york/356523-fp-patisserie/menu/	Coffee & Tea, Desserts	1 W 58th St New York, NY, 10019	-73.9853107	40.7687711	true
The East Wing fka The Havana Room	/ny/new-york/356355-the-east-wing-fka-the-havana-room/menu/	Cuban, Italian, Eclectic & International	306 E 76th St New York, NY, 10021	-73.95627103448275	40.77120572413793	true
Delimarie	/ny/new-york/355931-delimarie/menu/	Deli Food, Sandwiches	106 Duane St New York, NY, 10007	-74.00636466835576	40.7154192	true
Morris Grilled Cheese	/ny/new-york/355571-morris-grilled-cheese/menu/	Sandwiches	Location Varies New York, NY, 10022	0	0	false
Sky Room	/ny/new-york/354373-sky-room/menu/	Tapas, Bar Food, Cocktails	330 W 40th St New York, NY, 10018	-73.99252248791056	40.756460149999995	true
Villabate	/ny/new-york/354410-villabate/menu/	Desserts	7001 18th Ave New York, NY, 11204	-73.9930272	40.6160862	true
Juice Generation (Greenwich)	/ny/new-york/354954-juice-generation-greenwich/menu/	Sandwiches, Smoothies & Juices, Local/Organic	97 Greenwich Ave New York, NY, 10014	-74.0018678	40.7375594	true
Lucky Strike Lanes	/ny/new-york/352130-lucky-strike-lanes/menu/	American, Bar Food	650 W 42nd St New York, NY, 10036	-73.9998236	40.761363200000005	true
Rumours	/ny/new-york/352334-rumours/menu/	Irish, Bar Food	933 8th Ave New York, NY, 10019	-73.98397475876206	40.765695050000005	true
David's Tea	/ny/new-york/352540-david-s-tea/menu/	Teahouses	1124 3rd Ave New York, NY, 10065	-73.9637820026696	40.76584715	true
Maiden Lane	/ny/new-york/353102-maiden-lane/menu/	Alcohol, Tapas, Local/Organic	162 Avenue B New York, NY, 10009	-73.9798625	40.7271258	true
United We Stand Deli	/ny/new-york/360048-united-we-stand-deli/menu/	Deli Food, Sandwiches	814 10th Ave New York, NY, 10019	-73.98946846781905	40.76724565	true
Goloka (5th St)	/ny/new-york/360480-goloka-5th-st/menu/	Smoothies & Juices	325 E 5th St New York, NY, 10003	-73.98772930281672	40.72648535	true
Argo Tea	/ny/new-york/360503-argo-tea/menu/	Coffee & Tea, Teahouses	75 University Pl New York, NY, 10003	-73.9932878	40.7331087	true
Nolita Mart & Espresso Bar	/ny/new-york/359514-nolita-mart-espresso-bar/menu/	Coffee & Tea	156 Mott St New York, NY, 10013	-73.9960525059284	40.71941645	true
Comme Ci, Comme Ca	/ny/new-york/359671-comme-ci-comme-ca/menu/	Moroccan, Sandwiches	Location Varies New York, NY, 10022	0	0	false
Taqueria Diana	/ny/new-york/360673-taqueria-diana/menu/	Mexican	129 2nd Ave New York, NY, 10003	-73.98810013290193	40.728519950000006	true
Wayside	/ny/new-york/361048-wayside/menu/	Coffee & Tea, Sandwiches, Local/Organic	139 E 12th St New York, NY, 10003	-73.98830682472428	40.7321978	true
SALUD Soho	/ny/new-york/361013-salud-soho/menu/	Smoothies & Juices, Vegetarian, Healthy, Latin American, Vegan, Local/Organic	107 Thompson St New York, NY, 10012	-74.0021222959816	40.72584405	true
Mos	/ny/new-york/360951-mos/menu/	Wings, Bar Food	80 Lafayette Ave New York, NY, 11217	-73.9747397	40.6870703	true
Sasha's Coffee	/ny/new-york/358920-sasha-s-coffee/menu/	Coffee & Tea	711 Amsterdam Ave New York, NY, 10025	-73.9707455	40.7931393	true
Andy's Deli	/ny/new-york/358862-andy-s-deli/menu/	Deli Food, Sandwiches, Salads	291 Broadway New York, NY, 10007	-74.0060767	40.7149137	true
Provocateur	/ny/new-york/358572-provocateur/menu/	Sushi, Tapas, Bar Food, Cocktails	18 9th Ave New York, NY, 10014	-74.00571114407973	40.73987685	true
Nordic Delicacies Inc	/ny/new-york/358848-nordic-delicacies-inc/menu/	Deli Food, Scandinavian	6909 3rd Ave New York, NY, 11209	-74.02589676824238	40.63534475	true
No Fun: Featuring Dorante's Cocina	/ny/new-york/358105-no-fun-featuring-dorante-s-cocina/menu/	Bar Food, Cocktails	161 Ludlow St New York, NY, 10002	-73.98790196170113	40.72145495	true
Estela	/ny/new-york/357297-estela/menu/	Mediterranean, Tapas	47 E Houston St New York, NY, 10012	-73.99476689398942	40.7246346	true
Ciccio	/ny/new-york/356687-ciccio/menu/	Italian	190 6th Ave New York, NY, 10013	-73.9778681983565	40.6759806	true
Bagel Boss	/ny/new-york/368500-bagel-boss/menu/	Deli Food, Bagels, Salads, Kosher	544 3rd Ave New York, NY, 10016	-73.9773631832979	40.74727145	true
Cafe Standard	/ny/new-york/378993-cafe-standard/menu/	American	25 Cooper Sq New York, NY, 10003	-73.9907398	40.727834	true
1200 Miles	/ny/new-york/378990-1200-miles/menu/	French	31 W 21st St New York, NY, 10010	-73.992128	40.7411298	true
Fahima Halal	/ny/new-york/361473-fahima-halal/menu/	Middle Eastern	47th St New York, NY, 10017	-73.91891	40.737357	true
XPL Halal Food Truck	/ny/new-york/361539-xpl-halal-food-truck/menu/	Middle Eastern	SW Corner of 48th St & Park Ave New York, NY, 10017	0	0	false
12 Corners	/ny/new-york/361702-12-corners/menu/	Coffee & Tea, Sandwiches	155 E Broadway New York, NY, 10002	-73.9906331	40.7138631	true
Nourish Kitchen and Table	/ny/new-york/361897-nourish-kitchen-and-table/menu/	American (New), Vegetarian, Local/Organic	95 Greenwich Ave New York, NY, 10014	-74.0017655	40.7374125	true
Gogo Grill	/ny/new-york/362949-gogo-grill/menu/	Sandwiches	1 Bowling Green New York, NY, 10004	-74.0140946	40.7045091	true
Rex Coffee	/ny/new-york/362955-rex-coffee/menu/	Coffee & Tea, Sandwiches	864 10th Ave New York, NY, 10019	-73.9885588	40.7688283	true
David's Tea	/ny/new-york/363596-david-s-tea/menu/	Teahouses	688 6th Ave New York, NY, 10010	-73.9931655	40.7420525	true
Prime Butcher Baker	/ny/new-york/363962-prime-butcher-baker/menu/	Deli Food, Kosher, Eastern European	1572 2nd Ave New York, NY, 10028	-73.9535358215158	40.77495295	true
Felice	/ny/new-york/364180-felice/menu/	Italian, Alcohol	15 Gold St New York, NY, 10038	-74.0069387	40.7078032	true
Hibachi Heaven	/ny/new-york/365034-hibachi-heaven/menu/	Japanese	Location Varies New York, NY, 10018	0	0	false
Blu Cafe	/ny/new-york/365758-blu-cafe/menu/	Coffee & Tea, Teahouses	120 Riverside Blvd New York, NY, 10069	-73.98903815277555	40.7763446	true
Yours Wholesome Foods Deli & Grocery	/ny/new-york/365835-yours-wholesome-foods-deli-grocery/menu/	Deli Food, Sandwiches, Smoothies & Juices	159 Essex St New York, NY, 10002	-73.9870303	40.7211584	true
Pushcart Coffee	/ny/new-york/366185-pushcart-coffee/menu/	Coffee & Tea	362 2nd Ave New York, NY, 10010	-73.981522	40.736742	true
El Kiosko Deli Grocery	/ny/new-york/366778-el-kiosko-deli-grocery/menu/	Mexican, Deli Food, Sandwiches	37-18 31st Ave New York, NY, 11103	-73.9181416	40.7616722	true
Hudson Terrace	/ny/new-york/367654-hudson-terrace/menu/	Eclectic & International, Tapas, Cocktails	621 W 46th St New York, NY, 10036	-73.99757159257985	40.76403475	true
Rasa	/ny/new-york/386408-rasa/menu/	Sushi, Asian Fusion	25 W 8th St New York, NY, 10011	-73.99763948093636	40.732995349999996	true
Taszo Espresso Bar	/ny/new-york/386721-taszo-espresso-bar/menu/	Coffee & Tea	5 Edward M Morgan Pl New York, NY, 10032	-73.945255	40.8345127	true
Cafe Boca Ciega	/ny/new-york/386921-cafe-boca-ciega/menu/	Cuban, Coffee & Tea	355 Broadway New York, NY, 10013	-73.7498902	42.6471953	true
La Panineria - Sandwich Shop	/ny/new-york/388994-la-panineria-sandwich-shop/menu/	Italian, Sandwiches	1 W 8th St New York, NY, 10011	-73.9966634	40.7324992	true
Da Capo Aperitivo E Caffe	/ny/new-york/389066-da-capo-aperitivo-e-caffe/menu/	Italian, Coffee & Tea	1392 Madison Ave New York, NY, 10029	-73.954025	40.7876673	true
Mex Carroll's Diner	/ny/new-york/382424-mex-carroll-s-diner/menu/		192 Columbia St New York, NY, 11231	-74.00270875324466	40.68553944999999	true
Roast Kitchen	/ny/new-york/385357-roast-kitchen/menu/	Salads, Healthy	740 7th Ave New York, NY, 10019	-73.9839568	40.7604367	true
Bluestone Lane	/ny/new-york/385884-bluestone-lane/menu/	Coffee & Tea	30 Broad St New York, NY, 10004	-74.01165136248397	40.706275250000004	true
Tablao Tapas Y Restaurante	/ny/new-york/385910-tablao-tapas-y-restaurante/menu/	Spanish, Tapas	361 Greenwich St New York, NY, 10013	-74.00999874439884	40.719017050000005	true
Le Cafe Coffee	/ny/new-york/385923-le-cafe-coffee/menu/	Coffee & Tea	7 E 14th St New York, NY, 10003	-73.99243018311981	40.7357597	true
FC Gotham	/ny/new-york/386149-fc-gotham/menu/	American	409 W 13th St  New York, NY, 10014	-74.006479	40.7406299	true
Pizza Vinoteca	/ny/new-york-city/389129-pizza-vinoteca/menu/	Italian, Pizza, Alcohol	15 Union Sq W New York City, NY, 10003	-73.9915327	40.7357447	true
Bocca di Bacco	/ny/new-york/393070-bocca-di-bacco/menu/	Italian	191 7th Ave New York, NY, 10011	-73.99611702814562	40.7428831	true
Clinton Square Pizza	/ny/new-york/393214-clinton-square-pizza/menu/	Pizza	201 Clinton St New York, NY, 10002	-73.9872441	40.7139486	true
Go Greenly Inwood	/ny/new-york/395965-go-greenly-inwood/menu/	Desserts, Teahouses	4865 Broadway New York, NY, 10034	-73.923892	40.8668982	true
Serengeti Teas & Spices	/ny/new-york/396021-serengeti-teas-spices/menu/	Coffee & Tea, Teahouses	2292 Frederick Douglass Blvd New York, NY, 10027	-73.9517412562767	40.80892015	true
The Shake & Burger Bar	/ny/new-york/401219-the-shake-burger-bar/menu/		344 3rd Ave New York, NY, 10010	-73.98233665367245	40.740457750000004	true
Halal Kharian Deli	/ny/new-york/403260-halal-kharian-deli/menu/	Indian	184 7th Ave New York, NY, 10011	-73.9968269	40.7427807	true
Fish & Shrimp	/ny/new-york/436971-fish-shrimp/menu/	Seafood	2089 Amsterdam Ave New York, NY, 10032	-73.93879870888387	40.836807750000006	true
Nick's Pizza Bar	/ny/new-york/436764-nick-s-pizza-bar/menu/	Italian, Pizza	365 3rd Ave New York, NY, 10016	-73.9812311346636	40.74087245	true
So-Home	/ny/new-york/436882-so-home/menu/	Turkish, Local/Organic	410 W Broadway New York, NY, 10012	-74.0018956	40.7248305	true
Que Rico Pollo	/ny/new-york/434514-que-rico-pollo/menu/	Puerto Rican, Latin American	46 St Nicholas Ave New York, NY, 10026	-73.9522696	40.8000773	true
Boqueria	/ny/new-york/436742-boqueria/menu/	Spanish, Alcohol, Tapas	1460 Second Ave New York, NY, 10075	-73.70245100000001	42.72577351020408	true
Mimi Cheng's	/ny/new-york/456915-mimi-cheng-s/menu/	Chinese, Dim Sum	179 2nd Ave New York, NY, 10003	-73.7691959745885	42.63939405	true
Goggan	/ny/new-york/466669-goggan/menu/	Korean	364 W 46th St New York, NY, 10036	-73.990292187661	40.7605514	true
DumplingGo	/ny/new-york/466893-dumplinggo/menu/	Asian Fusion	121 W 3rd St New York, NY, 10012	-74.000436	40.7305853	true
Akami Sushi	/ny/new-york/424485-akami-sushi/menu/	Japanese, Sushi	1773 1st Ave New York, NY, 10128	-73.94684609090909	40.78051163636364	true
Heavenly Market and Deli	/ny/new-york/424649-heavenly-market-and-deli/menu/	Deli Food, Sandwiches, Smoothies & Juices	77 3rd Ave New York, NY, 10003	-73.986821	40.7331529	true
Hogshead Tavern	/ny/new-york/477521-hogshead-tavern/menu/	Bar Food	126 Hamilton Pl New York, NY, 10031	-73.9493848	40.8239295	true
Grill on the Hill	/ny/new-york/477647-grill-on-the-hill/menu/	Bar Food	1624 Amsterdam Ave New York, NY, 10031	-73.9500208	40.8222409	true
Mysttik Masaala	/ny/new-york/476450-mysttik-masaala/menu/	Indian, Vegetarian	7 Hanover Sq New York, NY, 10004	-74.0096105445594	40.70408545	true
Harp Raw Bar & Grill	/ny/new-york/476845-harp-raw-bar-grill/menu/	Seafood, Soul Food	729 3rd Ave New York, NY, 10017	-73.97257051805616	40.752868449999994	true
Ricardo Ocean Grill	/ny/new-york/478718-ricardo-ocean-grill/menu/	Mediterranean, Seafood	2312 2nd Ave New York, NY, 10035	-73.936383	40.7985979	true
Beans & Vines	/ny/new-york/353860-beans-vines/menu/	Coffee & Tea, Alcohol, Tapas	4842 Broadway New York, NY, 10034	-73.92464496780039	40.866250949999994	true
East 12th Osteria	/ny/new-york/363696-east-12th-osteria/menu/	Italian	197 1st Ave New York, NY, 10009	-73.9820123	40.7320959	true
TAJ	/ny/new-york/251581-taj/menu/	Indian	310 E 6th St New York, NY, 10003	-73.98796978185013	40.7269821	true
Zest Japanese & Thai	/ny/new-york/317979-zest-japanese-thai/menu/	Japanese, Sushi	249 Broome St New York, NY, 10002	-73.99005657142857	40.717982	true
Matryoshka	/ny/new-york/318807-matryoshka/menu/	Russian, Eastern European	88 Fulton St New York, NY, 10038	-74.0057404	40.7090684	true
Robert's Restaurant	/ny/new-york/367897-robert-s-restaurant/menu/	American (New), Steak	536 W 28th St New York, NY, 10001	-74.0035227	40.7514107	true
Upstairs at '21'	/ny/new-york/352520-upstairs-at-21/menu/	American	21 W 52nd St New York, NY, 10019	-73.97741646781753	40.760490450000006	true
Pronto Pizza	/ny/new-york/7824-pronto-pizza/menu/	Italian, Pizza	1333 Broadway New York, NY, 10001	-73.70090260710141	42.723561000000004	true
Twins Pub	/ny/new-york/248690-twins-pub/menu/	Burgers, American, Bar Food	421 9th Ave New York, NY, 10001	-73.9967415	40.7531379	true
Lexington Candy Shop	/ny/new-york/299512-lexington-candy-shop/menu/	Diner	1226 Lexington Ave New York, NY, 10028	-73.9572445	40.7774615	true
beQu Juice	/ny/new-york/334433-bequ-juice/menu/	Smoothies & Juices	350 E 9th St New York, NY, 10003	-73.9853229	40.7282775	true
BXL Zoute	/ny/new-york/336333-bxl-zoute/menu/	Belgian	50 W 22nd St New York, NY, 10010	-73.99263780000001	40.7417155	true
Hibernia	/ny/new-york/358356-hibernia/menu/	Irish, American, Bar Food	401 W 50th St New York, NY, 10019	-73.9890998	40.7636531	true
Crave Sandwiches	/ny/new-york/318648-crave-sandwiches/menu/	Coffee & Tea, Sandwiches, Salads	1120 Ave of the Americas New York, NY, 10036	-73.9831832	40.7554679	true
Pepe Rosso Social	/ny/new-york/379212-pepe-rosso-social/menu/	Italian	173 Mott St New York, NY, 10013	-73.9961864	40.7200431	true
Five Tacos	/ny/new-york/321731-five-tacos/menu/	Mexican	119 St Marks Pl New York, NY, 10009	-73.98347811839226	40.727097799999996	true
Tres Carnes	/ny/new-york/362995-tres-carnes/menu/	Southwestern, Mexican	688 6th Ave New York, NY, 10010	-73.9931655	40.7420525	true
Hot Sichuan	/ny/new-york/403776-hot-sichuan/menu/	Chinese	130 9th Ave New York, NY, 10011	-74.00320570000001	40.743508899999995	true
Haile Bistro	/ny/new-york/379149-haile-bistro/menu/	Ethiopian	182 Avenue B New York, NY, 10009	-73.97944929975901	40.727796749999996	true
Heart of India	/ny/new-york/294278-heart-of-india/menu/	Indian	79 2nd Ave New York, NY, 10003	-73.76411275000001	42.63882515	true
Pisillo	/ny/new-york/375935-pisillo/menu/	Italian, Sandwiches	97 Nassau St New York, NY, 10038	-74.00761733333333	40.710478333333334	true
Proto's Pizza	/ny/new-york/311291-proto-s-pizza/menu/	Italian, Pizza	50 2nd Ave New York, NY, 10003	-73.9897977	40.7253863	true
Red 58	/ny/new-york/305871-red-58/menu/	American (New)	158 W 58th St New York, NY, 10019	-73.9787646	40.7657475	true
Irving Farm Coffee	/ny/new-york/363506-irving-farm-coffee/menu/	Coffee & Tea, Sandwiches	224 W 79th St New York, NY, 10024	-73.97949699287327	40.78337425	true
Abyssinia	/ny/new-york/362244-abyssinia/menu/	Ethiopian, African	268 W 135th St New York, NY, 10030	-73.9458914	40.8160376	true
Swine	/ny/new-york/364120-swine/menu/	American (New)	531 Hudson St New York, NY, 10014	-74.0064282	40.7342421	true
Little Fox Cafe	/ny/new-york/352959-little-fox-cafe/menu/	Coffee & Tea, Sandwiches	62 Kenmare St New York, NY, 10012	-73.9960322	40.7208559	true
Luna Pizza	/ny/new-york/355591-luna-pizza/menu/	Italian, Pizza	225 Park Row New York, NY, 10038	-73.9987642	40.7132119	true
La Maison du Chocolat	/ny/new-york/355730-la-maison-du-chocolat/menu/	Desserts	30 Rockefeller Plz New York, NY, 10112	-73.97955598843194	40.759123200000005	true
Ray's Gourmet Market	/ny/new-york/294403-ray-s-gourmet-market/menu/	Deli Food, Sandwiches, Salads	201 2nd Ave New York, NY, 10003	-73.986003125	40.7315148	true
Strokos Fine Foods	/ny/new-york/305972-strokos-fine-foods/menu/	Deli Food, Sandwiches, Salads	1121 St Nicholas Ave New York, NY, 10032	-73.9400968	40.8393848	true
caffebene	/ny/new-york/303997-caffebene/menu/	Korean, Coffee & Tea	1611 Broadway New York, NY, 10019	-73.9847013	40.7607416	true
99 Cent Express Pizza	/ny/new-york/301007-99-cent-express-pizza/menu/	Italian, Pizza	301 W 43rd St New York, NY, 10036	-73.989628	40.7581479	true
Pret A Manger	/ny/new-york/309148-pret-a-manger/menu/	Sandwiches, Soups, Salads	135 W 50th St New York, NY, 10020	-73.9823969	40.7608683	true
La Margarita	/ny/new-york/320175-la-margarita/menu/	Pizza	168 Ludlow St New York, NY, 10002	-73.98744428582884	40.721396049999996	true
Chloe's Soft Serve Fruit	/ny/new-york/318510-chloe-s-soft-serve-fruit/menu/	Smoothies & Juices, Desserts	25 E 17th St New York, NY, 10003	-73.9906671	40.7373666	true
Robusta Espresso Bar	/ny/new-york/318439-robusta-espresso-bar/menu/	Coffee & Tea	7 Hanover Sq New York, NY, 10004	-74.0096105445594	40.70408545	true
Pierre Loti Wine Bar	/ny/new-york/318623-pierre-loti-wine-bar/menu/	Mediterranean, Alcohol, Tapas	300 1/2 E 52nd St New York, NY, 10022	-73.96733911518838	40.75588295	true
Mr. Chow Tribeca	/ny/new-york/340560-mr-chow-tribeca/menu/	Chinese, Wild Game	121 Hudson St New York, NY, 10013	-73.62997899999999	43.2955535	true
Pennsylvania 6 NYC	/ny/new-york/341542-pennsylvania-6-nyc/menu/	American, Gastropub	132 W 31st St New York, NY, 10001	-73.9906177	40.7483789	true
La Maison du Chocolat	/ny/new-york/355731-la-maison-du-chocolat/menu/	Desserts	1018 Madison Ave New York, NY, 10075	-73.96267650539605	40.77603505	true
Baked by Melissa	/ny/new-york/354715-baked-by-melissa/menu/	Bakery & Pastries, Desserts	526 7th Ave New York, NY, 10018	-73.9888304	40.7537663	true
Knave	/ny/new-york/352136-knave/menu/	Italian, Alcohol, Cocktails	119 W 56th St New York, NY, 10019	-73.97857202027754	40.7643285	true
A&A	/ny/new-york/358146-a-a/menu/	Deli Food, Sandwiches	456 W 45th St New York, NY, 10036	-73.9938723	40.7613688	true
Chorus Karaoke	/ny/new-york/358793-chorus-karaoke/menu/	Asian Fusion, Bar Food	25 W 32nd St New York, NY, 10001	-73.986847	40.747835	true
L.A. Burdick	/ny/new-york/358558-l-a-burdick/menu/	Coffee & Tea, Desserts	5 E 20th St New York, NY, 10003	-73.6996402631579	42.73051594736842	true
150 Market	/ny/new-york/358564-150-market/menu/	Deli Food, Sandwiches	150 William St New York, NY, 10038	-74.0062342	40.7095722	true
Bee's Knees Baking Co.	/ny/new-york/356706-bee-s-knees-baking-co/menu/	Bakery & Pastries, Desserts	113 W 10th St New York, NY, 10011	-73.99935762637477	40.73492385	true
New York Sushi Ko	/ny/new-york/357118-new-york-sushi-ko/menu/	Japanese, Sushi	91 Clinton St New York, NY, 10002	-73.98555926973808	40.718673	true
Sweet Buttons Desserts	/ny/new-york/357185-sweet-buttons-desserts/menu/	Bakery & Pastries, Desserts	84 Rivington St New York, NY, 10002	-73.9891931	40.7204308	true
Mysttik Masaala	/ny/new-york/357401-mysttik-masaala/menu/	Indian, Tibetan, Vegetarian	304 E 44th St New York, NY, 10017	-73.97083980331803	40.750705749999995	true
Der Krung Thai Cuisine	/ny/new-york/361386-der-krung-thai-cuisine/menu/	Thai	860 9th Ave New York, NY, 10019	-73.98608663401639	40.76698055	true
Boxers NYC	/ny/new-york/359585-boxers-nyc/menu/	Pizza, Bar Food	37 W 20th St New York, NY, 10011	-73.69977836842105	42.73052352631579	true
The Drunken Horse NYC	/ny/new-york/360071-the-drunken-horse-nyc/menu/	Mediterranean, Alcohol, Tapas	225 10th Ave New York, NY, 10011	-74.00418889540212	40.7480555	true
Iguazu Wine & Grill	/ny/new-york/362128-iguazu-wine-grill/menu/	Coffee & Tea, South American	26 Jefferson St Store B New York, NY, 10002	0	0	false
Miami Food Machine	/ny/new-york/362078-miami-food-machine/menu/	Cuban, Latin American	Location Varies New York, NY, 10013	0	0	false
Sugar and Plumm	/ny/new-york/362956-sugar-and-plumm/menu/	Desserts	257 Bleecker St New York, NY, 10014	-74.0028891	40.7312411	true
Joe the Art of Coffee	/ny/new-york/362953-joe-the-art-of-coffee/menu/	Coffee & Tea	514 Columbus Ave New York, NY, 10024	-73.9729983	40.7857253	true
Court Street Grocers Sandwich Shop	/ny/new-york/379750-court-street-grocers-sandwich-shop/menu/	Sandwiches	600 11th Ave New York, NY, 10036	-73.9968975	40.7623295	true
Vien	/ny/new-york/373772-vien/menu/	Asian Fusion	220 Varick St New York, NY, 10014	-74.0050533	40.7289874	true
Genuine Roadside	/ny/new-york/379748-genuine-roadside/menu/	Soul Food	600 11th Ave New York, NY, 10036	-73.9968975	40.7623295	true
NYC Deli Market Corp #1	/ny/new-york/403434-nyc-deli-market-corp-1/menu/	Deli Food, Sandwiches	129 Avenue D New York, NY, 10009	-73.9757978	40.7242437	true
Empire Steak House	/ny/new-york/386208-empire-steak-house/menu/	Seafood, Steak	237 W 54th St New York, NY, 10019	-73.98301001135479	40.764509	true
Empire Steak House	/ny/new-york/386208-empire-steak-house/menu/	Seafood, Steak	237 W 54th St New York, NY, 10019	-73.98301001135479	40.764509	true
Sant Ambroeus	/ny/new-york/385969-sant-ambroeus/menu/	Italian	265 Lafayette St New York, NY, 10012	-73.9965186	40.7233997	true
China King	/ny/new-york/380551-china-king/menu/	Chinese	285 3rd Ave New York, NY, 10010	-73.98330700014452	40.73822045	true
Mozzarella & Vino	/ny/new-york/380657-mozzarella-vino/menu/	Italian, Alcohol	33 W 54th St New York, NY, 10019	-73.97720506066717	40.76200985	true
Curry Club	/ny/new-york/385546-curry-club/menu/	Indian	254 W 108th St New York, NY, 10025	-73.9673137	40.8026873	true
Grandma's Secrets	/ny/new-york/389053-grandma-s-secrets/menu/	Bakery & Pastries, Desserts	562 W 174th St New York, NY, 10033	-73.93656939321656	40.84436255	true
New Dragon	/ny/new-york/386912-new-dragon/menu/	Chinese	2413 2nd Ave New York, NY, 10035	-73.93447990734032	40.80203684999999	true
Chez Jef	/ny/new-york/386835-chez-jef/menu/	French	241 Bowery New York, NY, 10002	-73.9928637	40.7224954	true
Falanghina Pizza Bar	/ny/new-york/386414-falanghina-pizza-bar/menu/	Italian, Pizza	130 St Marks Pl New York, NY, 10009	-73.98358009999998	40.726688800000005	true
Lady Lexis	/ny/new-york/386514-lady-lexis/menu/	Bakery & Pastries, Desserts	1931 Madison Ave New York, NY, 10035	-73.9409396	40.8050834	true
OBICA Mozzarella Bar	/ny/new-york/423366-obica-mozzarella-bar/menu/	Italian, Pizza, Tapas	928 Broadway New York, NY, 10010	-73.9893474	40.7400479	true
Gran Morsi	/ny/new-york/438225-gran-morsi/menu/	Italian, Pizza	22 Warren St New York, NY, 10007	-74.00775328288111	40.7143364	true
La Pulperia	/ny/new-york/433674-la-pulperia/menu/	Seafood, South American, Cocktails	1626 2nd Ave New York, NY, 10028	-73.95229852526163	40.77660815	true
Neapolitan Express (E 111st St)	/ny/new-york/437007-neapolitan-express-e-111st-st/menu/	Pizza	232 E 111st St New York, NY, 10029	-73.85533338295143	40.75182959999999	true
Cafe Jax	/ny/new-york/476224-cafe-jax/menu/	Coffee & Tea, Sandwiches	318 E 84th St New York, NY, 10028	-73.95191752497664	40.77599645	true
Sushi Seki	/ny/new-york/476021-sushi-seki/menu/	Japanese, Sushi	208 W 23rd St New York, NY, 10011	-73.99643999777962	40.744137800000004	true
Fud-Hi	/ny/new-york/477663-fud-hi/menu/	Korean	Location Varies New York, NY, 10004	0	0	false
Sachi	/ny/new-york/477223-sachi/menu/	Sushi, Asian Fusion	713 2nd Ave New York, NY, 10016	-73.9740389	40.7476501	true
Greecologies	/ny/new-york/478225-greecologies/menu/	Greek, Coffee & Tea	379 Broome St New York, NY, 10013	-73.99655175468844	40.720158749999996	true
The Commons Chelsea	/ny/new-york/318157-the-commons-chelsea/menu/	Bakery & Pastries, Coffee & Tea, American	128 7th Ave New York, NY, 10011	-75.07532028535354	43.0301385	true
McKenna's Pub	/ny/new-york/352013-mckenna-s-pub/menu/	Irish, Bar Food	250 W 14th St New York, NY, 10011	-74.0021129	40.7394065	true
Benares Indian Restaurant	/ny/new-york/317586-benares-indian-restaurant/menu/	Indian	45 Murray St New York, NY, 10007	-74.00917381502322	40.714197600000006	true
Tartina	/ny/new-york/333654-tartina/menu/	Italian, Sandwiches	653 9th Ave New York, NY, 10036	-73.99122529351624	40.760807299999996	true
Local 92	/ny/new-york/323564-local-92/menu/	Mediterranean, Middle Eastern, Vegetarian	92 2nd Ave New York, NY, 10003	-73.98851051102281	40.7269201	true
Solace Bar and Grill	/ny/new-york/341172-solace-bar-and-grill/menu/	American, Bar Food	3496 Broadway New York, NY, 10031	-73.9512866	40.82484	true
Radiance	/ny/new-york/339780-radiance/menu/	Chinese, Dim Sum, Teahouses	208 E 50th St New York, NY, 10022	-73.97051132653061	40.75562540816327	true
Financier Patisserie	/ny/new-york/359911-financier-patisserie/menu/	French, Bakery & Pastries, Coffee & Tea, Desserts	1211 6th Ave New York, NY, 10036	-73.9819579	40.758469	true
Sushi Dojo	/ny/new-york/357453-sushi-dojo/menu/	Japanese, Sushi	110 1st Ave New York, NY, 10009	-73.98566933206449	40.7266377	true
Cafe Tarantin	/ny/new-york/375645-cafe-tarantin/menu/	Coffee & Tea	302 W 38th St New York, NY, 10018	-73.9921429	40.7547857	true
Oishi Bay Sushi Restaurant	/ny/new-york/381227-oishi-bay-sushi-restaurant/menu/	Japanese, Sushi	230 E 29th St New York, NY, 10016	-73.97900716701295	40.74177635	true
Bustan NYC	/ny/new-york/386049-bustan-nyc/menu/	Mediterranean	487 Amsterdam Ave New York, NY, 10024	-73.9759618587037	40.785904200000004	true
Horchata	/ny/new-york/400871-horchata/menu/	Mexican, Cocktails	470 6th Ave New York, NY, 10011	-73.9977992	40.73556355	true
Mokbar	/ny/new-york/395542-mokbar/menu/	Korean, Noodles	75 9th Ave. New York, NY, 10011	-74.0048973	40.7420513	true
Frere de Lys	/ny/new-york/400847-frere-de-lys/menu/	French, Alcohol	1685 1st Ave New York, NY, 10128	-73.9488853	40.7778653	true
Barfly	/ny/new-york/252028-barfly/menu/	American, Bar Food	244 3rd Ave New York, NY, 10010	-73.9846044	40.7371272	true
McNulty's Tea & Coffee Company	/ny/new-york/285653-mcnulty-s-tea-coffee-company/menu/	Coffee & Tea, Teahouses	109 Christopher St New York, NY, 10014	-74.0051551	40.7333422	true
Il Gnocchi Restaurant	/ny/new-york/366861-il-gnocchi-restaurant/menu/	Italian	118 E 116th St New York, NY, 10029	-73.9424335251002	40.798678100000004	true
Dorian's Seafood Market	/ny/new-york/349824-dorian-s-seafood-market/menu/	Seafood	1580 York Ave New York, NY, 10028	-73.94817495000001	40.774035100000006	true
Broadway Thai @ Tom & Toon	/ny/new-york/360721-broadway-thai-tom-toon/menu/	Thai, Vegetarian	241 W 51st St New York, NY, 10019	-73.98442575510204	40.76249495918367	true
Hudson Station	/ny/new-york/330916-hudson-station/menu/	Sandwiches, Bar Food	440 9th Ave New York, NY, 10001	-73.99548805243228	40.75366495	true
Fabio Cucina Italiana	/ny/new-york/386216-fabio-cucina-italiana/menu/	Italian	214 E 52nd St New York, NY, 10022	-73.9692034178777	40.7565434	true
Brasserie Beaumarchais	/ny/new-york/335759-brasserie-beaumarchais/menu/	French	409 W 13th St New York, NY, 10014	-74.006479	40.7406299	true
Dave's Hoagies	/ny/new-york/336806-dave-s-hoagies/menu/	Sandwiches	26 Cedar St New York, NY, 10038	-74.0082	40.7069732	true
La Brochette Kosher Steakhouse	/ny/new-york/373425-la-brochette-kosher-steakhouse/menu/	Sushi, Steak, Kosher	340 Lexington Ave New York, NY, 10016	-73.97749272716496	40.7498791	true
Times Square Diner	/ny/new-york/403522-times-square-diner/menu/	Diner, American	807 8th Ave New York, NY, 10019	-73.9869037	40.7615065	true
Jung Sik	/ny/new-york/331195-jung-sik/menu/	Korean	2 Harrison St New York, NY, 10013	-74.00933	40.718692	true
Baba Ghanouge	/ny/new-york/322491-baba-ghanouge/menu/	Middle Eastern, Vegetarian	143 Fulton St New York, NY, 10038	-74.00796990227622	40.71063895	true
Bits Bites & Baguettes	/ny/new-york/328779-bits-bites-baguettes/menu/	Deli Food, Sandwiches, Bagels, Salads	22 Park Pl New York, NY, 10007	-74.0085794	40.7127376	true
Grill 212	/ny/new-york/345719-grill-212/menu/		212 W 80th St New York, NY, 10024	-73.9788044	40.7841546	true
Louie and Chan	/ny/new-york/378989-louie-and-chan/menu/	Italian, Pizza, Cocktails	303 Broome St New York, NY, 10002	-73.99225054545454	40.718649	true
Juice Generation	/ny/new-york/356624-juice-generation/menu/	Sandwiches, Smoothies & Juices, Local/Organic	171 W 4th St New York, NY, 10014	-74.0014198	40.7321948	true
Molloy's Irish Pub	/ny/new-york/355747-molloy-s-irish-pub/menu/	Irish, American, Bar Food	737 9th Ave New York, NY, 10019	-73.98930047286436	40.7634441	true
The Simone	/ny/new-york/401106-the-simone/menu/	French	151 E 82nd St New York, NY, 10028	-73.9569853	40.7768188	true
Old Tbilisi Garden	/ny/new-york/434361-old-tbilisi-garden/menu/	Eastern European	174 Bleecker St New York, NY, 10012	-74.0007577	40.7288339	true
Hirohisa	/ny/new-york/475880-hirohisa/menu/	Japanese	73 Thompson St New York, NY, 10012	-74.00313249845203	40.7245853	true
Mikey Likes It	/ny/new-york/476089-mikey-likes-it/menu/	Desserts	199 Avenue A New York, NY, 10009	-73.98135914941497	40.72939565	true
Mary O's	/ny/new-york/305831-mary-o-s/menu/	Irish, American	32 Avenue A New York, NY, 10009	-73.98522270255512	40.7232852	true
A Spice Lane	/ny/new-york/403822-a-spice-lane/menu/	Indian, Vegetarian	216 3rd Ave New York, NY, 10003	-73.98535195307075	40.7362492	true
Ariana	/ny/new-york/386559-ariana/menu/	Russian, Eastern European	140 W Houston St New York, NY, 10012	-74.0016623	40.7280288	true
CAGEN	/ny/new-york/373429-cagen/menu/	Japanese	414 E 9th St New York, NY, 10009	-73.9841702	40.7277911	true
McCoy	/ny/new-york/362214-mccoy/menu/	American (New), Gastropub	89 MacDougal St New York, NY, 10012	-73.9996477	40.7309915	true
Jack's Stir Brew	/ny/new-york/353645-jack-s-stir-brew/menu/	Coffee & Tea, Bagels	138 W 10th St New York, NY, 10014	-74.00059582987447	40.73440775	true
Hana Michi	/ny/new-york/359738-hana-michi/menu/	Japanese, Sushi	28 W 32nd St 1st Fl New York, NY, 10001	0	0	false
The Grange Bar & Eatery	/ny/new-york/386725-the-grange-bar-eatery/menu/	American (New)	1635 Amsterdam Ave New York, NY, 10031	-73.9493514	40.822532	true
The Gander	/ny/new-york/389123-the-gander/menu/	American (New)	15 W 18th St New York, NY, 10011	-73.9928278	40.7390309	true
Pizza Boss	/ny/new-york/434458-pizza-boss/menu/	Pizza	1467 2nd Ave New York, NY, 10075	-73.9564646	40.7717157	true
Neary's	/ny/new-york/332158-neary-s/menu/	Irish, American	358 E 57th St New York, NY, 10022	-73.9635017792282	40.758271699999995	true
Gimme! Coffee	/ny/new-york/351990-gimme-coffee/menu/	Coffee & Tea	228 Mott St New York, NY, 10012	-73.99496739654667	40.72234745	true
El Aguila	/ny/new-york/363321-el-aguila/menu/	Mexican	1215 Lexington Ave New York, NY, 10028	-73.9572231	40.7770132	true
El Diablito Taqueria	/ny/new-york/337518-el-diablito-taqueria/menu/	Mexican	60 E 3rd St New York, NY, 10003	-73.98916160600106	40.725059349999995	true
Varsano's Chocolate	/ny/new-york/356506-varsano-s-chocolate/menu/	Desserts	172 W 4th St New York, NY, 10014	-74.002093	40.732807	true
Nanoosh - Madison Avenue	/ny/new-york/296651-nanoosh-madison-avenue/menu/	Mediterranean, Middle Eastern, Vegetarian, Local/Organic	173 Madison Ave New York, NY, 10016	-73.9831432	40.7472641	true
District Tap House	/ny/new-york/386625-district-tap-house/menu/	American, Gastropub	246 W 38th St New York, NY, 10018	-73.9904182	40.7541085	true
Slane	/ny/new-york/249504-slane/menu/	Irish, Burgers, Bar Food	102 MacDougal St New York, NY, 10012	-74.0009297	40.7293414	true
Restaurant La Libertad	/ny/new-york/335400-restaurant-la-libertad/menu/	Latin American, Central American	3764 Broadway Ave New York, NY, 10032	-76.1944938	42.5943831	true
Thunder Jackson's	/ny/new-york/309467-thunder-jackson-s/menu/	Sandwiches, Wings, Bar Food	169 Bleecker St New York, NY, 10012	-74.0002307	40.7288472	true
The Best of NY Food	/ny/new-york/315544-the-best-of-ny-food/menu/	Deli Food, Sandwiches	150 Water St New York, NY, 10005	-74.0059187	40.7064388	true
Teado	/ny/new-york/354533-teado/menu/	Smoothies & Juices, Asian Fusion, Teahouses	145D Hester St New York, NY, 10002	-73.99500366666666	40.717235	true
NY Dosas	/ny/new-york/360758-ny-dosas/menu/	Indian, Vegetarian, Vegan	50 Washington Sq S New York, NY, 10014	-73.9988003	40.7305366	true
Dakota Bar	/ny/new-york/356734-dakota-bar/menu/	American (New), Salads, Cocktails	53 W 72nd St New York, NY, 10023	-73.9784926	40.7774689	true
Better Being Underground	/ny/new-york/359036-better-being-underground/menu/	Sandwiches, Local/Organic	55 Leroy St New York, NY, 10014	-74.00514108178776	40.730306999999996	true
Indian Food Truck	/ny/new-york/361653-indian-food-truck/menu/	Indian	Whitehall St New York, NY, 10004	-74.0126568	40.7018402	true
Grandaisy Bakery	/ny/new-york/367228-grandaisy-bakery/menu/	Bakery & Pastries, Coffee & Tea, Pizza, Sandwiches	250 W Broadway New York, NY, 10013	-74.0058812	40.7200191	true
Cantina 1838	/ny/new-york/368568-cantina-1838/menu/		1838 7th Ave New York, NY, 10026	-73.95505250838153	40.80037615	true
The Peacock	/ny/new-york/385882-the-peacock/menu/	British (Modern)	24 E 39th St New York, NY, 10016	-73.9802461	40.7505917	true
Bay Kitchen Bar	/ny/new-york/478549-bay-kitchen-bar/menu/	Seafood	321 E 73rd St New York, NY, 10021	-73.95644388707501	40.76908985	true
Cafe 28 Gourmet Deli	/ny/new-york/57046-cafe-28-gourmet-deli/menu/	Sushi, Deli Food, Sandwiches	245 5th Ave New York, NY, 10016	-73.9871814	40.7445	true
Muk Eun Ji	/ny/new-york/297795-muk-eun-ji/menu/	Barbecue, Korean	34 W 32nd St New York, NY, 10001	-73.9872728	40.7477981	true
West Side Cafe	/ny/new-york/294622-west-side-cafe/menu/	Deli Food, Pizza, Sandwiches, Salads	218 W 72nd St New York, NY, 10023	-73.9827702	40.778901	true
A1 Sushi Cafe	/ny/new-york/315412-a1-sushi-cafe/menu/	Japanese, Sushi	164 Pearl St New York, NY, 10005	-74.0074729	40.7059099	true
Sabor De Mexico	/ny/new-york/315344-sabor-de-mexico/menu/	Mexican	76 Nassau St New York, NY, 10038	-74.0081562	40.7097035	true
Fresh & Co.	/ny/new-york/315764-fresh-co/menu/	Deli Food, Sandwiches, Salads	45 W 57th St New York, NY, 10019	-73.97631296544978	40.7642897	true
Guy & Gallard III	/ny/new-york/315803-guy-gallard-iii/menu/		245 W 38th St New York, NY, 10018	-73.990254	40.754263	true
Sfilatino Italian Gourmet	/ny/new-york/318255-sfilatino-italian-gourmet/menu/	Italian, Sandwiches	342 W 57th St New York, NY, 10019	-73.984162	40.767163499999995	true
Potbelly Sandwich Shop	/ny/new-york/318603-potbelly-sandwich-shop/menu/	Sandwiches	150 E 44th St New York, NY, 10017	-73.97425099496391	40.752096949999995	true
Potbelly Sandwich Shop	/ny/new-york/318603-potbelly-sandwich-shop/menu/	Sandwiches	150 E 44th St New York, NY, 10017	-73.97425099496391	40.752096949999995	true
Filicori Zecchini	/ny/new-york/318969-filicori-zecchini/menu/	Coffee & Tea	42 E 46th St New York, NY, 10017	-73.977116	40.7551257	true
La Vie En Szechuan	/ny/new-york/309793-la-vie-en-szechuan/menu/	Chinese	14 E 33rd St New York, NY, 10016	-73.984293	40.7473377	true
S1 Grocers and Gourmet Deli	/ny/new-york/309851-s1-grocers-and-gourmet-deli/menu/	Deli Food, Sandwiches	172 Allen St New York, NY, 10002	-73.9889648	40.7213529	true
Joey Pepperoni's Pizza	/ny/new-york/311034-joey-pepperoni-s-pizza/menu/	Pizza	493 2nd Ave New York, NY, 10016	-73.97899557113156	40.74097075	true
Nemo	/ny/new-york/300309-nemo/menu/	Korean	54 E 13th St New York, NY, 10003	-73.99172180921764	40.734071	true
Ninth Ward	/ny/new-york/332228-ninth-ward/menu/	Cajun & Creole, Cocktails	180 2nd Ave New York, NY, 10003	-73.98590629228825	40.73055635	true
Eros Meze	/ny/new-york/334278-eros-meze/menu/	Greek, Mediterranean, Tapas	447 3RD AVE New York, NY, 10016	-73.70909674855322	42.7117164	true
Savory and Sweet	/ny/new-york/326749-savory-and-sweet/menu/	Bakery & Pastries, Coffee & Tea, Pizza	404 10th Ave New York, NY, 10001	-73.9995929	40.7534886	true
Los Perros Locos	/ny/new-york/322307-los-perros-locos/menu/	Hot Dogs, South American	201 Allen St New York, NY, 10002	-73.9891072	40.7224725	true
Juice Press	/ny/new-york/321874-juice-press/menu/	Smoothies & Juices, Vegetarian, Kosher, Healthy, Vegan	122 Greenwich Ave New York, NY, 10011	-74.00240413113207	40.73920095	true
Prime Cafe	/ny/new-york/323465-prime-cafe/menu/	Italian, American	125 W 26th St New York, NY, 10001	-73.99213469387755	40.745198979591834	true
Quechua Nostra (Formerly Best Lexington Peruvian	/ny/new-york/338809-quechua-nostra-formerly-best-lexington-peruvian/menu/	Peruvian, Pizza, South American	1634 Lexington Ave New York, NY, 10029	-73.9476244	40.7906645	true
Friedmans	/ny/new-york/368702-friedmans/menu/	Sandwiches, Local/Organic	132 W 31st St New York, NY, 10001	-73.9906177	40.7483789	true
Pagani	/ny/new-york/373415-pagani/menu/	Italian	289 Bleecker St New York, NY, 10014	-74.00330365200534	40.7321528	true
Thirstea	/ny/new-york/367857-thirstea/menu/	Coffee & Tea, Desserts, Teahouses	280 E 10th St New York, NY, 10009	-73.9830627215843	40.727982499999996	true
Archie & Son's	/ny/new-york/374003-archie-son-s/menu/		23 3rd Ave New York, NY, 10003	-73.9896623	40.7295771	true
Cafe Grumpy	/ny/new-york/373725-cafe-grumpy/menu/	Coffee & Tea	200 W 39th St New York, NY, 10018	-73.9888897	40.7540102	true
Pa-paya Seed Frozen Yogurt	/ny/new-york/373531-pa-paya-seed-frozen-yogurt/menu/	Desserts	171 Lenox Ave New York, NY, 10026	-73.9486866	40.8038475	true
Taste of Persia	/ny/new-york/379695-taste-of-persia/menu/	Soups, Persian	12 W 18th St New York, NY, 10011	-73.9929649	40.7388998	true
Vacca Grill & Lounge	/ny/new-york/379697-vacca-grill-lounge/menu/	Puerto Rican, Latin American	416 W 203rd St New York, NY, 10034	-73.9198574	40.8614333	true
Tisserie	/ny/new-york/367147-tisserie/menu/	Bakery & Pastries, Coffee & Tea	870 7th Ave New York, NY, 10019	-73.9812106	40.7646446	true
East Harlem Cafe	/ny/new-york/367725-east-harlem-cafe/menu/	Coffee & Tea	1651 Lexington Ave New York, NY, 10029	-73.9470267	40.7909848	true
Katsu-Hama	/ny/new-york/366126-katsu-hama/menu/	Japanese	43 W 55th St New York, NY, 10019	-73.9766972	40.7625361	true
Tariq's #1 Halal Food	/ny/new-york/364130-tariq-s-1-halal-food/menu/	Indian	Park Ave S New York, NY, 10003	-73.9890161	40.7366389	true
The Headless Horseman	/ny/new-york/364058-the-headless-horseman/menu/	American (New), Tapas	119 E 15th St New York, NY, 10003	-73.9885442	40.7348845	true
Alphabet Scoop	/ny/new-york/361983-alphabet-scoop/menu/	Desserts	543 E 11th St New York, NY, 10009	-73.97990301707512	40.7278357	true
Morocho Peruvian Fusion	/ny/new-york/362821-morocho-peruvian-fusion/menu/	Peruvian, Vegetarian, South American, Nuevo Latino	1 Union Square W New York, NY, 10011	0	0	false
Buongiorno Espresso Bar	/ny/new-york/363254-buongiorno-espresso-bar/menu/	Italian, Coffee & Tea	502 9th Ave New York, NY, 10018	-73.99410135938365	40.7559265	true
Izakaya Moku	/ny/new-york/358575-izakaya-moku/menu/	Japanese	10 W 32nd St New York, NY, 10001	-73.9864627	40.7473106	true
Hot Pot Under the Tree	/ny/new-york/358673-hot-pot-under-the-tree/menu/	Jamaican, Caribbean	2839 Frederick Douglas Blvd New York, NY, 10039	0	0	false
5C Cafe	/ny/new-york/358278-5c-cafe/menu/	Coffee & Tea, Vegetarian, Healthy, Vegan	68 Avenue C New York, NY, 10009	-73.979661	40.7227283	true
Schapiro's	/ny/new-york/356784-schapiro-s/menu/	American (New), Eastern European, Cocktails	120 Rivington St New York, NY, 10002	-73.98719096149462	40.719910049999996	true
Cafe Buunni	/ny/new-york/356839-cafe-buunni/menu/	Coffee & Tea, Local/Organic	213 Pinehurst Ave New York, NY, 10033	-73.9377454	40.8551761	true
Balilo	/ny/new-york/357234-balilo/menu/	Diner	600 W 57th St New York, NY, 10019	-73.9918498	40.7703825	true
Wafels & Dinges	/ny/new-york/360691-wafels-dinges/menu/	Belgian, Coffee & Tea, Desserts	15 Avenue B New York, NY, 10009	-73.98328145132176	40.7218257	true
Silvana	/ny/new-york/360444-silvana/menu/	Middle Eastern, Vegetarian	300 W 116th St New York, NY, 10026	-73.9557314	40.8044008	true
Ramen Misoya	/ny/new-york/354448-ramen-misoya/menu/	Japanese, Noodles	129 2nd Ave New York, NY, 10003	-73.98810013290193	40.728519950000006	true
Multi Tastes Diner	/ny/new-york/355930-multi-tastes-diner/menu/	Chinese, Diner, Pizza	23 St James Pl New York, NY, 10038	-73.9998293	40.7113535	true
First Ave Pierogi & Deli	/ny/new-york/355605-first-ave-pierogi-deli/menu/	Polish, Deli Food, Eastern European	130 1st Ave New York, NY, 10009	-73.98518974999999	40.727348649999996	true
Coolhaus	/ny/new-york/355488-coolhaus/menu/	Desserts	Location Varies New York, NY, 10010	0	0	false
Pulse Karaoke Lounge	/ny/new-york/352333-pulse-karaoke-lounge/menu/	Eclectic & International, Bar Food, Cocktails	135 W 41st St New York, NY, 10036	-73.9857121	40.7547656	true
Sunrise Mart	/ny/new-york/353388-sunrise-mart/menu/	Japanese, Sushi	12 E 41st St New York, NY, 10017	-73.9807341	40.7524184	true
Goodman's Cafe	/ny/new-york/353665-goodman-s-cafe/menu/	American (New), Coffee & Tea, Sandwiches, Salads	754 5th Ave New York, NY, 10019	-73.973738	40.7635908	true
Lobster Boat Restaurant	/ny/new-york/354140-lobster-boat-restaurant/menu/	Chinese, Seafood	11 Mott St New York, NY, 10013	-73.99896129292551	40.71403855	true
Pop @ Pod	/ny/new-york/475900-pop-pod/menu/	Burgers, Hot Dogs	230 E 51st St New York, NY, 10022	-73.96909164907899	40.7557125	true
City of Saints	/ny/new-york/476467-city-of-saints/menu/	Coffee & Tea	79 E 10th St New York, NY, 10003	-73.9899196	40.7312029	true
Serena's Wine Bar Cafe	/ny/new-york/476809-serena-s-wine-bar-cafe/menu/	Alcohol, Tapas	1268 2nd Ave New York, NY, 10065	-73.960854	40.7652194	true
Hakata Hot Pot	/ny/new-york/478085-hakata-hot-pot/menu/	Japanese, Soups	58 St Marks Pl New York, NY, 10003	-73.98665742200689	40.727928	true
Pier A	/ny/new-york/477873-pier-a/menu/	Seafood	22 Battery Pl New York, NY, 10004	-74.01749	40.7044799	true
Cotenna	/ny/new-york/477119-cotenna/menu/	Italian	21 Bedford St New York, NY, 10014	-74.00365674543565	40.7290036	true
Melt Shop	/ny/new-york/385854-melt-shop/menu/	Sandwiches	135 W 50th St New York, NY, 10020	-73.9823969	40.7608683	true
Emmett's	/ny/new-york/380539-emmett-s/menu/	Pizza, Sandwiches	50 MacDougal St New York, NY, 10012	-74.0025442	40.7273671	true
Bleecker Kitchen & Co	/ny/new-york/385267-bleecker-kitchen-co/menu/	American	643 Broadway New York, NY, 10012	-73.9958817	40.7267174	true
Bonnie Vee	/ny/new-york/386403-bonnie-vee/menu/	Bar Food	17 Stanton St New York, NY, 10002	-73.99215465046237	40.72238405	true
Dolce Gelato NYC	/ny/new-york/386757-dolce-gelato-nyc/menu/	Coffee & Tea, Desserts	33 Barrow St New York, NY, 10014	-74.003278	40.732349	true
By the Way Bakery	/ny/new-york/388835-by-the-way-bakery/menu/	Bakery & Pastries	2442 Broadway New York, NY, 10024	-73.9741523	40.7909404	true
Arts & Crafts Beer Parlor	/ny/new-york/389342-arts-crafts-beer-parlor/menu/	Bar Food	26 W 8th St New York, NY, 10011	-73.99781918257918	40.7327088	true
Pita Grill	/ny/new-york/389453-pita-grill/menu/	Middle Eastern	1028 Amsterdam Ave New York, NY, 10025	-73.9637363	40.8034675	true
Relleno-El Punto de la Picadera	/ny/new-york/396364-relleno-el-punto-de-la-picadera/menu/	Puerto Rican, Latin American	346 Audubon Ave New York, NY, 10033	-73.931825375	40.8496055	true
Revolution Sandwich NY	/ny/new-york/401401-revolution-sandwich-ny/menu/	Sandwiches	52 Walker St New York, NY, 10013	-74.0033229	40.7190784	true
NY Grill & Deli	/ny/new-york/434725-ny-grill-deli/menu/	Deli Food, Sandwiches	208 Rivington St New York, NY, 10002	-73.9828625	40.7184907	true
August Gatherings	/ny/new-york/438159-august-gatherings/menu/	Chinese	266 Canal St New York, NY, 10013	-74.0012084	40.7186763	true
Rustico	/ny/new-york/424311-rustico/menu/	Coffee & Tea, Crepes	135 1st Ave New York, NY, 10003	-73.9853728	40.7278156	true
Garden Gourmet	/ny/new-york/424415-garden-gourmet/menu/	Deli Food, Sandwiches, Salads	2019 1st Ave New York, NY, 10029	-73.9405047	40.7890156	true
Kipsey's	/ny/new-york/322224-kipsey-s/menu/	American	438 2nd Ave New York, NY, 10010	-73.7823976	42.63929645	true
Royal Curry and Kabob	/ny/new-york/353088-royal-curry-and-kabob/menu/	Indian	19-25 St Nicholas Ave New York, NY, 10026	-73.95253429411764	40.79929529411765	true
WINE30	/ny/new-york/345058-wine30/menu/		41 E 30th St New York, NY, 10016	-73.98371215	40.7449869	true
Bawarchi Indian Cuisine	/ny/new-york/334559-bawarchi-indian-cuisine/menu/	Indian	1546 Madison Ave New York, NY, 10029	-73.9503189	40.7927565	true
Vitae	/ny/new-york/318067-vitae/menu/		4 E 46th St New York, NY, 10017	-73.97852485598906	40.755613	true
Ground Support	/ny/new-york/367923-ground-support/menu/	Coffee & Tea, Sandwiches	399 W Broadway New York, NY, 10012	-74.0019929	40.7242595	true
Sedutto	/ny/new-york/354235-sedutto/menu/	Desserts	1498 1st Ave New York, NY, 10021	-73.9560696	40.7677068	true
Cafe BonJour Deli & Pizza	/ny/new-york/309377-cafe-bonjour-deli-pizza/menu/	Mediterranean, Deli Food, Pizza, Sandwiches	18 W 38th St New York, NY, 10018	-73.98382726333477	40.7511865	true
MoMo West Village	/ny/new-york/345517-momo-west-village/menu/		152 W 10th St New York, NY, 10014	-74.001209	40.734425	true
Cuchifritos	/ny/new-york/355928-cuchifritos/menu/	Puerto Rican, Latin American	168 E 116th St New York, NY, 10029	-73.94103725000001	40.798283125000005	true
Wasabi Sushi & Bento	/ny/new-york/386623-wasabi-sushi-bento/menu/	Japanese, Sushi	561 7th Ave New York, NY, 10036	-73.9875946	40.7548184	true
The Shakespeare	/ny/new-york/385855-the-shakespeare/menu/	British (Traditional)	24 E 39th St New York, NY, 10016	-73.9802461	40.7505917	true
Blue Planet Grill	/ny/new-york/326068-blue-planet-grill/menu/	Pizza, American, Local/Organic	120 Greenwich St New York, NY, 10006	-74.0132284	40.7091086	true
Little Muenster	/ny/new-york/310079-little-muenster/menu/	Sandwiches	100 Stanton St New York, NY, 10002	-73.9879187545133	40.72138475	true
GROM at Columbus Circle	/ny/new-york/353598-grom-at-columbus-circle/menu/	Desserts	1796 Broadway New York, NY, 10019	-73.9814579	40.7672906	true
9th Ave Royal Deli	/ny/new-york/351991-9th-ave-royal-deli/menu/	Deli Food, Sandwiches	817 9th Ave New York, NY, 10019	-73.9872175	40.7661616	true
Cork 'N Fork	/ny/new-york/379367-cork-n-fork/menu/	Alcohol, Eclectic & International, Tapas	186 Ave A New York, NY, 10009	-73.9813167	40.7288636	true
Farafina Cafe & Lounge	/ny/new-york/379033-farafina-cafe-lounge/menu/	African	1813 Amsterdam Ave New York, NY, 10031	-73.9452066	40.8282073	true
Aromas Boutique Bakery & Cafe	/ny/new-york/364037-aromas-boutique-bakery-cafe/menu/	Bakery & Pastries, Desserts	2248 1st Ave New York, NY, 10029	-73.935349935027	40.79556205	true
Yooglers Frozen Yogurt	/ny/new-york/365891-yooglers-frozen-yogurt/menu/	Desserts	791 Broadway New York, NY, 10003	-73.99160390425797	40.73207105	true
Five Mile Stone	/ny/new-york/388919-five-mile-stone/menu/	American, Bar Food	1640 2nd Ave New York, NY, 10028	-73.95187694999998	40.777209400000004	true
The Milton	/ny/new-york/475641-the-milton/menu/	Irish, British (Traditional)	1754 2nd Ave New York, NY, 10128	-73.94890287355955	40.7812241	true
McQuaids Public House	/ny/new-york/352500-mcquaids-public-house/menu/	Irish, Bar Food	589 11th Ave New York, NY, 10036	-73.9974589	40.7622972	true
Panade	/ny/new-york/354894-panade/menu/	Bakery & Pastries, Sandwiches, Desserts	129 Eldridge St New York, NY, 10002	-73.99175809158464	40.7188441	true
NYY Steak Midtown	/ny/new-york/379007-nyy-steak-midtown/menu/	Steak	7 W 51st St New York, NY, 10019	-73.97746518189217	40.75971775	true
Kotobuki	/ny/new-york/365775-kotobuki/menu/	Japanese, Sushi	56 3rd Ave New York, NY, 10003	-73.98914948748623	40.73111505	true
Madman Espresso	/ny/new-york/364442-madman-espresso/menu/	Coffee & Tea	319 E 14th St New York, NY, 10003	-73.98394021674969	40.7321809	true
Bombay's Indian Restaurant	/ny/new-york/297828-bombay-s-indian-restaurant/menu/	Indian, Seafood, Chicken, Salads, Asian, Healthy	60 Pearl St New York, NY, 10004	-74.01108522118858	40.70343895	true
The Beatrice Inn	/ny/new-york/361724-the-beatrice-inn/menu/	American (New), Cocktails	285 W 12th St New York, NY, 10014	-74.00410711678865	40.7377144	true
Au Za'atar To Go	/ny/new-york/388867-au-za-atar-to-go/menu/	Mediterranean, Bistro	188 Ave A New York, NY, 10009	-73.9812454	40.7289381	true
Peacefood Cafe Downtown	/ny/new-york/362045-peacefood-cafe-downtown/menu/	Coffee & Tea, Vegetarian, Healthy, Vegan	41 E 11th St New York, NY, 10003	-73.9930451	40.7333256	true
Amelie	/ny/new-york/352662-amelie/menu/	French, Alcohol, Tapas	22 W 8th St New York, NY, 10011	-73.9976557	40.7326969	true
Van Diemen's	/ny/new-york/318078-van-diemen-s/menu/		383 3rd Ave New York, NY, 10016	-73.98083450000001	40.74151985	true
SheShe Pizza	/ny/new-york/342229-sheshe-pizza/menu/	Italian, Pizza	961 Columbus Ave New York, NY, 10025	-73.9621259	40.7999431	true
Vinus and Marc	/ny/new-york/360305-vinus-and-marc/menu/	American (New), Tapas, Cocktails	1825 2nd Ave New York, NY, 10128	-73.9479763	40.783362	true
OCabanon	/ny/new-york/386405-ocabanon/menu/	French	245 W 29th St New York, NY, 10001	-73.99454265	40.748792800000004	true
Caffe dei Fiori	/ny/new-york/477579-caffe-dei-fiori/menu/	Italian	973 Lexington Ave  New York, NY, 10021	-73.96269589589795	40.7693498	true
Masala Times Greenwich Village	/ny/new-york/293254-masala-times-greenwich-village/menu/	Indian	194 Bleecker St New York, NY, 10012	-74.0016624918725	40.7291702	true
La Tropezienne Bakery	/ny/new-york/354799-la-tropezienne-bakery/menu/	French, Bakery & Pastries, Coffee & Tea, Sandwiches, Desserts	2131 1st Ave New York, NY, 10029	-73.9384989	40.7920625	true
Market Cafe & Brick Oven Pizza	/ny/new-york/326238-market-cafe-brick-oven-pizza/menu/	Deli Food, Pizza, Sandwiches	425 Lexington Ave New York, NY, 10017	-73.9747251	40.7524384	true
Sigmund Pretzel Shop	/ny/new-york/356510-sigmund-pretzel-shop/menu/	Bakery & Pastries, Coffee & Tea, Sandwiches	29 Avenue B New York, NY, 10009	-73.9829662	40.7224756	true
Sundaes and Cones	/ny/new-york/250232-sundaes-and-cones/menu/	Coffee & Tea, Desserts	95 E 10th St New York, NY, 10003	-73.9894064	40.7309926	true
Kale	/ny/new-york/379258-kale/menu/	Smoothies & Juices, Healthy	342 Lexington Ave New York, NY, 10016	-73.97746852354571	40.7499282	true
Crepeaway	/ny/new-york/296677-crepeaway/menu/	Coffee & Tea, Crepes	31 Waverly Pl New York, NY, 10003	-73.9952135	40.7306776	true
Dylan Murphy's	/ny/new-york/330100-dylan-murphy-s/menu/	Wings, Bar Food	1453 3rd Ave New York, NY, 10028	-73.9555897	40.7762581	true
Kirakuya Sake Bar	/ny/new-york/339117-kirakuya-sake-bar/menu/	Japanese, Tapas, Bar Food	2 W 32nd St New York, NY, 10001	-73.98619015374231	40.74719315	true
Le Philosophe	/ny/new-york/339334-le-philosophe/menu/	French	55 Bond St New York, NY, 10012	-73.9927035012453	40.725737699999996	true
Blarney Stone	/ny/new-york/349683-blarney-stone/menu/	Irish, Bar Food	11 Trinity Pl New York, NY, 10006	-74.0136334	40.706556	true
Pizza Stop	/ny/new-york/317123-pizza-stop/menu/	Italian, Pizza	531 Malcolm X Blvd New York, NY, 10037	-73.9404415	40.8148176	true
La Montanara	/ny/new-york/310866-la-montanara/menu/	Italian, Pizza	168 Ludlow St New York, NY, 10002	-73.98744428582884	40.721396049999996	true
Eight Turn Crepe	/ny/new-york/361857-eight-turn-crepe/menu/	Coffee & Tea, Crepes, Desserts	55 Spring St New York, NY, 10012	-73.99663863625234	40.7223077	true
Manhattan Proper	/ny/new-york/366817-manhattan-proper/menu/	Bar Food, Cocktails	6 Murray St New York, NY, 10007	-74.00800608583499	40.713180550000004	true
Cocoron	/ny/new-york/355132-cocoron/menu/	Japanese, Noodles	61 Delancey St New York, NY, 10002	-73.9908405	40.7191154	true
Temple Bar	/ny/new-york/353635-temple-bar/menu/	Bar Food, Cocktails	332 Lafayette St New York, NY, 10012	-73.99491033333334	40.725762833333334	true
Lowe's Eatery	/ny/new-york/353791-lowe-s-eatery/menu/	Jamaican, Soul Food	101 W 136th St New York, NY, 10030	-73.9407349	40.8150396	true
SnAKS	/ny/new-york/353985-snaks/menu/	American (New)	611 5th Ave New York, NY, 10022	-73.9769564693561	40.75801405	true
Jittery Joe's Coffee	/ny/new-york/360141-jittery-joe-s-coffee/menu/	Coffee & Tea, Teahouses	216 E 45th St New York, NY, 10017	-73.97216932953697	40.75207975	true
Carnegie John's	/ny/new-york/360755-carnegie-john-s/menu/	Burgers, Sandwiches	56th St & 7th Ave New York, NY, 10019	0	0	false
Jake's Saloon	/ny/new-york/357594-jake-s-saloon/menu/	American, Bar Food	202 9th Ave New York, NY, 10011	-74.0013265859009	40.7459099	true
Jin Ramen West Harlem	/ny/new-york/359285-jin-ramen-west-harlem/menu/	Japanese, Noodles	3183 Broadway New York, NY, 10027	-73.9588496	40.8153944	true
BV's Grill	/ny/new-york/398608-bv-s-grill/menu/	Steak	919 3rd Ave  New York, NY, 10022	-73.96746821714933	40.75889165	true
Charrua	/ny/new-york/437478-charrua/menu/	South American	131 Essex St New York, NY, 10002	-73.9876041	40.7200308	true
Zibetto Espresso Bar	/ny/new-york/275935-zibetto-espresso-bar/menu/	Coffee & Tea	1385 6th Ave New York, NY, 10019	-73.977729	40.7639054	true
Moshiko Falafel	/ny/new-york/314792-moshiko-falafel/menu/	Middle Eastern, Sandwiches, Salads, Vegetarian	877 10th Ave New York, NY, 10019	-73.9885908	40.7693948	true
Epistrophy	/ny/new-york/252979-epistrophy/menu/	Italian	200 Mott Street New York, NY, 10012	-73.99536865589333	40.72118495	true
Dimes	/ny/new-york/373721-dimes/menu/	Coffee & Tea, Local/Organic	49 Canal St New York, NY, 10002	-73.9915654	40.7149354	true
Cibo e Vino	/ny/new-york/385990-cibo-e-vino/menu/	Italian	2418 Broadway Ave New York, NY, 10024	-76.1944938	42.5943831	true
Golden City	/ny/new-york/48060-golden-city/menu/	Chinese	2545 Amsterdam Ave New York, NY, 10033	-73.9283108	40.8513312	true
Akimoto Sushi	/ny/new-york/318895-akimoto-sushi/menu/	Japanese, Sushi	187 Church St New York, NY, 10007	-73.92833795	41.7016802	true
Urban Vegan Kitchen	/ny/new-york/308696-urban-vegan-kitchen/menu/	Vegetarian, Tapas, Vegan	41 Carmine Ave New York, NY, 10014	0	0	false
Ootoya Chelsea	/ny/new-york/363995-ootoya-chelsea/menu/	Japanese, Sushi	8 W 18th St New York, NY, 10011	-73.9927902	40.7388137	true
Molly's Cupcakes	/ny/new-york/360990-molly-s-cupcakes/menu/	Desserts	228 Bleecker St New York, NY, 10014	-74.00248211964389	40.73002845	true
Korilla Korean BBQ Truck	/ny/new-york/352381-korilla-korean-bbq-truck/menu/	Barbecue, Korean, Mexican	Location Varies New York, NY, 10023	0	0	false
Jacob's Restaurant	/ny/new-york/355541-jacob-s-restaurant/menu/	Soul Food	373 Lenox Ave New York, NY, 10027	-73.9439914	40.8102604	true
Muscle Maker Grill	/ny/new-york/300079-muscle-maker-grill/menu/	Sandwiches, Healthy	10 Murray St New York, NY, 10007	-74.0081717	40.7133701	true
Shanghai Heping Restaurant	/ny/new-york/478699-shanghai-heping-restaurant/menu/	Chinese	104 Mott St New York, NY, 10013	-73.99727784615385	40.717403	true
Gaia	/ny/new-york/296635-gaia/menu/	Italian, Coffee & Tea, Sandwiches	251 E Houston New York, NY, 10002	0	0	false
Miss Korea BBQ	/ny/new-york/293963-miss-korea-bbq/menu/	Barbecue, Korean	10 W 32nd St New York, NY, 10001	-73.9864627	40.7473106	true
Pippali	/ny/new-york/374699-pippali/menu/	Indian	129 E 27th St New York, NY, 10016	-73.9833132	40.7423183	true
Empellon Cocina	/ny/new-york/337718-empellon-cocina/menu/	Mexican, Tapas, Cocktails, Nuevo Latino	105 1st Ave New York, NY, 10003	-73.98629884484063	40.726805299999995	true
Cassidy's	/ny/new-york/354906-cassidy-s/menu/	Irish, American, Bar Food	65 W 55th St New York, NY, 10019	-73.9773732	40.7628066	true
Geisha Sushi	/ny/new-york/395569-geisha-sushi/menu/	Japanese, Sushi	3468 Broadway New York, NY, 10031	-73.9518105	40.8240742	true
Armonie	/ny/new-york/340374-armonie/menu/	Italian, Pizza	100 E 117th St New York, NY, 10035	-73.9425638	40.7997906	true
Cedric	/ny/new-york/361140-cedric/menu/	French, Bistro	185 St Nicholas Ave New York, NY, 10026	-73.953014	40.8060918	true
Artichoke Basille's Pizza and Bar	/ny/new-york/302339-artichoke-basille-s-pizza-and-bar/menu/	Pizza	111 MacDougal St New York, NY, 10012	-74.0006561	40.7299487	true
Gina La Fornarina	/ny/new-york/319052-gina-la-fornarina/menu/	Italian, Pizza	26 E 91st St New York, NY, 10128	-73.9567964	40.7840338	true
Bread To Go	/ny/new-york/314638-bread-to-go/menu/	Italian, Sandwiches	450 Hudson St New York, NY, 10014	-74.00657636363636	40.73127681818182	true
Left Bank	/ny/new-york/331465-left-bank/menu/	American (New)	117 Perry St New York, NY, 10014	-74.0067873	40.7351393	true
China North Dumpling	/ny/new-york/354191-china-north-dumpling/menu/	Chinese	27a Essex St New York, NY, 10002	-73.989842596182	40.71583215	true
Empire Cake	/ny/new-york/362339-empire-cake/menu/	Bakery & Pastries, Desserts	112 8th Ave New York, NY, 10011	-74.0015032	40.7407741	true
Mama Ghanoush	/ny/new-york/395644-mama-ghanoush/menu/	Middle Eastern	442 3rd Ave New York, NY, 10016	-73.9798913	40.7436191	true
Bar Primi	/ny/new-york/400918-bar-primi/menu/	Italian	325 Bowery New York, NY, 10003	-73.991736	40.7256479	true
Principessa Soho	/ny/new-york/332820-principessa-soho/menu/	Italian	199 Prince St New York, NY, 10012	-74.00269311242064	40.72685355	true
Lulu & Me	/ny/new-york/339886-lulu-me/menu/	American (New), Italian, Cocktails, Gastropub	253 5th Ave New York, NY, 10016	-73.98682518385385	40.7446935	true
Joy Curry & Tandoor	/ny/new-york/314095-joy-curry-tandoor/menu/	Indian	32 W 39th St New York, NY, 10018	-73.98401845	40.752083999999996	true
Fat Buddha	/ny/new-york/361456-fat-buddha/menu/	Tapas, Asian Fusion	212 Avenue A New York, NY, 10009	-73.9805533	40.7297644	true
Chinelos II	/ny/new-york/353474-chinelos-ii/menu/	Mexican	530 W 136st St New York, NY, 10031	0	0	false
Roti Modern Mediterranean	/ny/new-york/357472-roti-modern-mediterranean/menu/	Mediterranean, Middle Eastern	142 E 43rd St New York, NY, 10017	-74.01415285714286	40.65371014285714	true
Pax Wholesome Foods	/ny/new-york/233357-pax-wholesome-foods/menu/	Bakery & Pastries, Deli Food, Sandwiches, Soups	90 Broad St New York, NY, 10004	-74.01196078915397	40.70379645	true
Troy Liquor Bar	/ny/new-york/285640-troy-liquor-bar/menu/	Wings, Bar Food, Cocktails	675 Hudson St New York, NY, 10014	-74.0055355	40.7402557	true
Lobby Lounge at Mandarin Oriental	/ny/new-york/267895-lobby-lounge-at-mandarin-oriental/menu/	Eclectic & International, Bar Food, Cocktails, Teahouses	80 Columbus Circle New York, NY, 10023	-73.982912	40.7690103	true
Noodle Village	/ny/new-york/272503-noodle-village/menu/	Chinese, Noodles	13 Mott St Ste 212 New York, NY, 10013	0	0	false
City Chow Cafe	/ny/new-york/252539-city-chow-cafe/menu/	Smoothies & Juices, Salads, Healthy	420 Lexington Ave New York, NY, 10017	-73.97585124172987	40.752697600000005	true
New Parisian Deli	/ny/new-york/251720-new-parisian-deli/menu/	Deli Food, Sandwiches, Salads	501 Columbus Ave New York, NY, 10024	-73.9728827	40.7852044	true
Battery Place Market	/ny/new-york/315540-battery-place-market/menu/	Deli Food, Sandwiches	77 Battery Pl New York, NY, 10280	-74.016928	40.7072172	true
Ken & Cook	/ny/new-york/316250-ken-cook/menu/	American (New)	19 Kenmare St New York, NY, 10012	-73.9946841	40.7206639	true
One Cup Two Cupcakes	/ny/new-york/319861-one-cup-two-cupcakes/menu/	Bakery & Pastries, Coffee & Tea, Desserts	953 Columbus Ave New York, NY, 10025	-73.96223298003244	40.7996425	true
Premier Deli	/ny/new-york/305854-premier-deli/menu/	Deli Food, Sandwiches	856 7th Ave New York, NY, 10019	-73.9812315	40.7641932	true
Fuel Grill & Juice Bar	/ny/new-york/305795-fuel-grill-juice-bar/menu/	Smoothies & Juices, Healthy	683 9th Ave New York, NY, 10036	-73.9903993	40.761804	true
Dorian Gray	/ny/new-york/309115-dorian-gray/menu/	Irish, American, Bar Food	205 E 4th St New York, NY, 10009	-73.9838019	40.7239695	true
Ramen Thukpa	/ny/new-york/310992-ramen-thukpa/menu/	Chinese, Noodles	70 7th Ave S New York, NY, 10014	-74.0039912	40.731971	true
Terrace Diner	/ny/new-york/309520-terrace-diner/menu/	Diner	21297 26th Ave New York, NY, 11360	-73.7803958	40.7774188	true
Cafe De Novo	/ny/new-york/338811-cafe-de-novo/menu/	Korean, Deli Food, Sandwiches	94 1/2 Greenwich St New York, NY, 10006	-74.0136635	40.708125	true
Bateaux New York	/ny/new-york/335736-bateaux-new-york/menu/	American	Pier 61 New York, NY, 10011	-74.00911700805122	40.74750895	true
Barbaresco	/ny/new-york/335689-barbaresco/menu/	Italian	843 Lexington Ave New York, NY, 10065	-73.9656562	40.765439	true
The Carriage House	/ny/new-york/327934-the-carriage-house/menu/	Irish, American, Bar Food	219 E 59th St New York, NY, 10022	-73.96552455037562	40.76135395	true
E Noodle	/ny/new-york/323860-e-noodle/menu/	Chinese	5 Catherine St New York, NY, 10038	-73.9974136	40.7138926	true
Eastwood	/ny/new-york/323444-eastwood/menu/	Middle Eastern, Bar Food	200 Clinton St New York, NY, 10002	-73.9870616	40.7140975	true
Salad Pangea	/ny/new-york/323307-salad-pangea/menu/	Salads	303 Park Ave S New York, NY, 10010	-73.986028	40.7402689	true
16 Handles	/ny/new-york/357498-16-handles/menu/	Desserts, Kosher	245 Bleecker St New York, NY, 10014	-74.00259778868326	40.7309106	true
Chelton's Bar & Grill	/ny/new-york/358859-chelton-s-bar-grill/menu/	American	128 W 29th St New York, NY, 10001	-73.99140885	40.7469639	true
Double Wide Bar & Southern Kitchen	/ny/new-york/358380-double-wide-bar-southern-kitchen/menu/	Soul Food, Bar Food, Cocktails	505 E 12th St New York, NY, 10009	-73.98084234914542	40.72903355	true
Wok to Walk	/ny/new-york/360665-wok-to-walk/menu/	Thai, Asian Fusion	570 8th Ave New York, NY, 10018	-73.9913702	40.754761	true
Joe the Art of Coffee	/ny/new-york/359503-joe-the-art-of-coffee/menu/	Coffee & Tea	550 W 120th St New York, NY, 10027	-73.9618843	40.8101344	true
Ports Coffee & Tea	/ny/new-york/359443-ports-coffee-tea/menu/	Coffee & Tea	251 W 23rd St New York, NY, 10011	-73.99705794117648	40.744786705882355	true
Las Palmas	/ny/new-york/354830-las-palmas/menu/	Deli Food	3891 Broadway New York, NY, 10032	-73.942564	40.8376822	true
Viktor & Spoils	/ny/new-york/355740-viktor-spoils/menu/	Mexican, Nuevo Latino	105 Rivington St New York, NY, 10002	-73.9882280049168	40.7198055	true
Tanoshi Sushi Sake Bar	/ny/new-york/363692-tanoshi-sushi-sake-bar/menu/	Japanese, Sushi	1372 York Ave New York, NY, 10021	-73.95282801672087	40.7675761	true
Charlie Bird	/ny/new-york/364470-charlie-bird/menu/	American (New), Italian	5 King St New York, NY, 10012	-74.0028571	40.7277301	true
Yogorino	/ny/new-york/365122-yogorino/menu/	Desserts	657 Broadway New York, NY, 10012	-73.9955893	40.7270914	true
Bugs	/ny/new-york/365726-bugs/menu/	Japanese, Tapas	504 E 12th St New York, NY, 10009	-73.98097466874913	40.72870475	true
The Drunken Munkey	/ny/new-york/379409-the-drunken-munkey/menu/	Indian, Cocktails	338 E 92nd St New York, NY, 10128	-73.9475594	40.7809852	true
Milosun Sushi	/ny/new-york/368394-milosun-sushi/menu/	Japanese, Sushi	141 1st Ave New York, NY, 10003	-73.98530740935283	40.72809545	true
Hot Jalapeno	/ny/new-york/373508-hot-jalapeno/menu/	Mexican	219 E 116th St New York, NY, 10029	-73.9415679	40.7985915	true
A-12 Sushi and Ramen	/ny/new-york/380339-a-12-sushi-and-ramen/menu/	Japanese, Sushi, Noodles	63 Clinton St New York, NY, 10002	-73.98513173352096	40.71950405	true
Tender	/ny/new-york/400867-tender/menu/	American (New), Sushi, Cocktails	130 W 47th St New York, NY, 10036	-73.9831961757719	40.7583497	true
North River Lobster Company	/ny/new-york/400915-north-river-lobster-company/menu/	Seafood	Pier 81 New York, NY, 10036	-78.85072561458495	42.8632145	true
Peak Thai Restaurant	/ny/new-york/401334-peak-thai-restaurant/menu/	Thai	301 E 49th St New York, NY, 10017	-74.013539	40.648067	true
Racines	/ny/new-york/395936-racines/menu/	French, Bistro	94 Chambers St New York, NY, 10007	-74.007524	40.714613	true
Insomnia Cookies	/ny/new-york/395510-insomnia-cookies/menu/	Desserts	299 E 11th St New York, NY, 10003	-73.98586184999999	40.73029355	true
The Cannibal at Gotham West Market	/ny/new-york/385858-the-cannibal-at-gotham-west-market/menu/	Tapas, Cocktails, Gastropub	600 11th Ave New York, NY, 10036	-73.9968975	40.7623295	true
Navy	/ny/new-york/386870-navy/menu/	American (New), Cocktails	137 Sullivan St New York, NY, 10012	-74.00178425294328	40.72679675	true
Cafe Hanamizuki	/ny/new-york/388929-cafe-hanamizuki/menu/	Japanese, Coffee & Tea	143 W 29th St New York, NY, 10001	-73.9917001	40.7474576	true
327 Gourmet Deli	/ny/new-york/386913-327-gourmet-deli/menu/	Deli Food, Sandwiches, Smoothies & Juices	327 1st Ave New York, NY, 10003	-73.9805735	40.7344025	true
Senza Gluten Cafe & Bakery	/ny/new-york/438261-senza-gluten-cafe-bakery/menu/	Italian	171 Sullivan St New York, NY, 10012	-74.00083904777837	40.7279573	true
Senza Gluten Cafe & Bakery	/ny/new-york/438261-senza-gluten-cafe-bakery/menu/	Italian	171 Sullivan St New York, NY, 10012	-74.00083904777837	40.7279573	true
Yo Sweets	/ny/new-york/466172-yo-sweets/menu/	Smoothies & Juices, Desserts	756 W 181st St New York, NY, 10033	-73.937885	40.8506639	true
Tuome	/ny/new-york/466238-tuome/menu/	American (New)	536 E 5th St New York, NY, 10009	-73.98296522718616	40.72400225	true
Crepes & Delices	/ny/new-york/424763-crepes-delices/menu/	Crepes	124 W 72nd St New York, NY, 10023	-73.97989911988495	40.77759519999999	true
